OPS 6582 (TRANSIT 5B-5) 
1 00965U 64083D   23128.80194834  .00000102  00000+0  13081-3 0  9992
2 00965  90.0368 196.5414 0040969   0.9758 136.3773 13.56821502889632
OSCAR 7 (AO-7)          
1 07530U 74089B   23128.92435942 -.00000038  00000+0  49043-4 0  9992
2 07530 101.9460 115.3390 0012448 137.2738 280.3872 12.53663916218250
UOSAT 2 (UO-11)         
1 14781U 84021B   23128.90490191  .00002299  00000+0  27701-3 0  9996
2 14781  97.6552 107.3670 0007566 342.9579  17.1381 14.84775117 88310
NOAA 9                  
1 15427U 84123A   23128.92427885  .00000251  00000+0  14965-3 0  9993
2 15427  99.0881 112.1716 0014266 327.2462  86.7201 14.16352787982681
LUSAT (LO-19)           
1 20442U 90005G   23128.72771744  .00000289  00000+0  12199-3 0  9994
2 20442  98.8416 104.4067 0010720 297.4367  62.5726 14.33243729739690
ITAMSAT (IO-26)         
1 22826U 93061D   23128.55698056  .00000219  00000+0  10131-3 0  9999
2 22826  98.8393 170.6656 0009325 163.0938 197.0557 14.30653487544897
RADIO ROSTO (RS-15)     
1 23439U 94085A   23128.88954971 -.00000039  00000+0  10000-3 0  9990
2 23439  64.8165 339.2571 0163760 216.9949 141.9591 11.27573784168185
JAS-2 (FO-29)           
1 24278U 96046B   23129.22328898 -.00000016  00000+0  17277-4 0  9992
2 24278  98.5267 113.0951 0350595 157.8131 203.8612 13.53143093319912
NOAA 15                 
1 25338U 98030A   23129.15332858  .00000315  00000+0  14905-3 0  9993
2 25338  98.6091 158.8720 0011495  70.9025 289.3399 14.26309128299694
TECHSAT 1B (GO-32)      
1 25397U 98043D   23128.93916455  .00000170  00000+0  94262-4 0  9992
2 25397  98.8659  86.0639 0000419 189.8005 170.3165 14.23866748289966
ISS (ZARYA)             
1 25544U 98067A   23129.33311206  .00014447  00000+0  26005-3 0  9991
2 25544  51.6399 161.1075 0006170 327.2163 143.8663 15.50052739395762
ORSTED                  
1 25635U 99008B   23128.88456278  .00001310  00000+0  31489-3 0  9993
2 25635  96.4586 282.3598 0136097 221.3632 137.7199 14.48984155277397
PHASE 3D (AO-40)        
1 26609U 00072B   23127.50506853 -.00000028  00000+0  00000+0 0  9998
2 26609   5.9025 188.5851 7922288 154.3715 289.9842  1.25588184103228
PCSAT (NO-44)           
1 26931U 01043C   23128.91906042  .00000315  00000+0  15136-3 0  9993
2 26931  67.0506 298.2165 0007568 278.1617  81.8626 14.30904347128128
SAUDISAT 1C (SO-50)     
1 27607U 02058C   23128.83357998  .00001485  00000+0  22034-3 0  9996
2 27607  64.5561  25.5700 0072447 232.5365 126.9135 14.77195588 96412
CUTE-1 (CO-55)          
1 27844U 03031E   23128.93790160  .00000515  00000+0  24899-3 0  9998
2 27844  98.6790 136.7692 0008740 235.2348 124.8008 14.22753685 30151
CUBESAT XI-IV (CO-57)   
1 27848U 03031J   23128.51343138  .00000431  00000+0  21363-3 0  9995
2 27848  98.6827 136.7813 0008481 253.5274 106.4973 14.22267038 29915
MOZHAYETS 4 (RS-22)     
1 27939U 03042A   23129.20457507  .00001812  00000+0  32264-3 0  9997
2 27939  98.2371 275.8883 0011326 257.6332 102.3604 14.68282848 48823
INMARSAT 4-F1           
1 28628U 05009A   23129.02827176 -.00000254  00000+0  00000+0 0  9990
2 28628   3.8797  38.1149 0003114  21.2778 320.8711  1.00271434 66280
NOAA 18                 
1 28654U 05018A   23129.11874711  .00000320  00000+0  19525-3 0  9995
2 28654  98.9102 203.6968 0015273 128.6509 231.6032 14.12929925926052
CUBESAT XI-V            
1 28895U 05043F   23128.88328857  .00002679  00000+0  50213-3 0  9996
2 28895  98.1479 261.2602 0016212 191.7065 168.3764 14.65525048935059
METOP-A                 
1 29499U 06044A   23129.17094370  .00002937  00000+0  38696-3 0  9990
2 29499  98.4025 188.5276 0195615  65.8178  18.2848 14.68451360861309
CARTOSAT-2 (IRS-P7)     
1 29710U 07001B   23128.94117658  .00038187  00000+0  55900-3 0  9992
2 29710  97.8863 262.4451 0102608 343.4882  16.3033 15.49485042886229
CAPE-1                  
1 31130U 07012P   23128.77690411  .00002925  00000+0  60651-3 0  9997
2 31130  98.3059  72.8834 0093645   5.9932 354.2364 14.58243999852489
CARTOSAT-2A             
1 32783U 08021A   23128.84159952  .00001299  00000+0  18378-3 0  9993
2 32783  97.9186 189.9377 0012729 187.5129 172.5893 14.78723533811102
CUTE-1.7+APD II (CO-65) 
1 32785U 08021C   23128.43106929  .00004982  00000+0  49640-3 0  9994
2 32785  97.7036  95.2540 0010809 230.7590 129.2670 14.91996608814898
COMPASS-1               
1 32787U 08021E   23129.18485241  .00010991  00000+0  87080-3 0  9993
2 32787  97.5941 106.5576 0013351 143.2233 216.9910 15.00667465816851
AAUSAT-II               
1 32788U 08021F   23128.68500121  .00012719  00000+0  94486-3 0  9991
2 32788  97.5608 109.0117 0009838 122.7160 237.5016 15.03112546817177
DELFI-C3 (DO-64)        
1 32789U 08021G   23128.78327792  .00065451  00000+0  20692-2 0  9992
2 32789  97.3064 150.6504 0004625 235.7544 124.3261 15.32544551821340
SEEDS II (CO-66)        
1 32791U 08021J   23128.22035456  .00007265  00000+0  64739-3 0  9997
2 32791  97.6549 100.3174 0011887 175.5738 184.5591 14.96252029815682
YUBILEINY (RS-30)       
1 32953U 08025A   23129.09031668  .00000024  00000+0  10000-3 0  9996
2 32953  82.5049 341.4241 0018744 270.8020  89.0917 12.43122959678793
FENGYUN 3A              
1 32958U 08026A   23128.79166959  .00000231  00000+0  13126-3 0  9992
2 32958  98.5523  83.9677 0009060 155.7594 204.4011 14.18862352774350
PRISM (HITOMI)          
1 33493U 09002B   23128.92295318  .00014543  00000+0  10073-2 0  9997
2 33493  98.2466 140.7131 0016893 172.7608 187.3864 15.05655354777832
STARS (KUKAI)           
1 33498U 09002G   23129.18391374  .00003712  00000+0  47667-3 0  9996
2 33498  98.1388  31.4103 0008778 283.0194  77.0038 14.81806926770054
KKS-1 (KISEKI)          
1 33499U 09002H   23128.76504834  .00001868  00000+0  27267-3 0  9991
2 33499  98.1773  20.5719 0008845   3.4711 356.6559 14.76966842768249
NOAA 19                 
1 33591U 09005A   23129.15829188  .00000263  00000+0  16664-3 0  9990
2 33591  99.1032 174.4553 0013644 357.3204   2.7891 14.12748649734432
SWISSCUBE               
1 35932U 09051B   23128.58421011  .00001485  00000+0  33636-3 0  9996
2 35932  98.5266 357.9954 0008482 122.5219 237.6800 14.57639876723448
BEESAT-1                
1 35933U 09051C   23128.68098173  .00001284  00000+0  29274-3 0  9997
2 35933  98.5194 359.4610 0006545 131.6094 228.5665 14.57559200723535
ITUPSAT1                
1 35935U 09051E   23128.69551325  .00001169  00000+0  27298-3 0  9999
2 35935  98.5295 359.4354 0008720 138.2097 221.9767 14.56614783723219
XIWANG-1 (HOPE-1)       
1 36122U 09072B   23128.94436107 -.00000005  00000+0  99542-4 0  9990
2 36122 100.2353  94.0640 0007033 317.6837  42.3733 13.16382275643734
CARTOSAT-2B             
1 36795U 10035A   23128.74376027  .00001122  00000+0  15979-3 0  9990
2 36795  97.9136 189.7635 0011816 271.3909  88.5951 14.78714582692138
TISAT 1                 
1 36799U 10035E   23128.61928543  .00006348  00000+0  57194-3 0  9996
2 36799  98.1409 356.7054 0012388 104.1093 256.1504 14.95902893696315
FENGYUN 3B              
1 37214U 10059A   23129.20962828  .00000241  00000+0  14961-3 0  9996
2 37214  99.0856 145.9168 0022803 153.7594 206.4736 14.14335145647005
JUGNU                   
1 37839U 11058B   23127.99967712  .00000613  00000+0  18311-3 0  9996
2 37839  19.9621   6.7546 0018973 135.7944 252.1622 14.12945767598096
SRMSAT                  
1 37841U 11058D   23128.56205003  .00000539  00000+0  15074-3 0  9991
2 37841  19.9716  89.5937 0011673 316.8818 198.9478 14.10885978597426
M-CUBED & EXP-1 PRIME   
1 37855U 11061F   23128.78329056  .00026487  00000+0  87046-3 0  9997
2 37855 101.7052  68.4519 0124016 160.2564 200.3521 15.24383450630554
HORYU-2                 
1 38340U 12025D   23128.87279654  .00003958  00000+0  55097-3 0  9995
2 38340  98.1691 216.9626 0009607 261.8356  98.1765 14.78353661580282
METOP-B                 
1 38771U 12049A   23129.10737115  .00000210  00000+0  11584-3 0  9998
2 38771  98.6811 189.1292 0001578 108.2371 339.4467 14.21507166551994
SARAL                   
1 39086U 13009A   23128.90658480  .00000191  00000+0  87077-4 0  9998
2 39086  98.5483 314.7687 0002793  61.7159 298.4306 14.32186592533061
AAUSAT 3                
1 39087U 13009B   23129.14118618  .00000889  00000+0  31553-3 0  9991
2 39087  98.3839 325.3036 0012802  18.3028 341.8640 14.36735756534337
STRAND-1                
1 39090U 13009E   23128.83286558  .00000513  00000+0  19277-3 0  9992
2 39090  98.3905 323.2721 0009509  29.1930 330.9786 14.35572150534072
BRITE-AUSTRIA           
1 39091U 13009F   23128.75881123  .00000321  00000+0  12651-3 0  9999
2 39091  98.3933 322.4211 0011079  34.7258 325.4649 14.35467939534096
UNIBRITE                
1 39092U 13009G   23128.80965632  .00000323  00000+0  12731-3 0  9995
2 39092  98.3971 322.2982 0009912  31.0289 329.1481 14.35340082534059
SOMP                    
1 39134U 13015E   23128.90275790  .00114059  00000+0  16554-2 0  9997
2 39134  64.8519  60.2885 0016310 254.9224 105.0116 15.55071255556863
BEESAT-3                
1 39135U 13015F   23128.65922954  .00045519  00000+0  11223-2 0  9993
2 39135  64.8583 109.3939 0021221 245.8328 114.0591 15.40063531555847
BEESAT-2                
1 39136U 13015G   23128.37073244  .00042385  00000+0  11367-2 0  9999
2 39136  64.8676 121.3019 0026389 280.7151  79.1014 15.37386786555551
NEE-01 PEGASO           
1 39151U 13018B   23129.11464195  .00003554  00000+0  44749-3 0  9997
2 39151  98.0048 239.2328 0014775 278.9836  80.9704 14.82592203541909
CUBEBUG-1 (CAPITAN BETO)
1 39153U 13018D   23128.86895485  .00004600  00000+0  56336-3 0  9998
2 39153  98.0339 244.8273 0014568 273.1888  86.7659 14.83612446541961
ESTCUBE 1               
1 39161U 13021C   23129.12587286  .00002170  00000+0  33599-3 0  9994
2 39161  97.8716 202.4992 0010442  94.9566 265.2839 14.74171294537424
